*******************************************************************************
JPL/HORIZONS                 52 Europa (A858 CA)           2020-Jun-20 08:02:08
Rec #:      52 (+COV) Soln.date: 2020-Feb-22_15:15:48   # obs: 3249 (1860-2020)
 
IAU76/J2000 helio. ecliptic osc. elements (au, days, deg., period=Julian yrs):
 
  EPOCH=  2452321.5 ! 2002-Feb-16.00 (TDB)         Residual RMS= .27703
   EC= .1013138221141426   QR= 2.786168738254223   TP= 2453304.8122232445
   OM= 129.0227551476044   W=  342.7036757062343   IN= 7.468457240928826
   A= 3.100268822214039    MA= 182.4598909095007   ADIST= 3.414368906173855
   PER= 5.45893            N= .180553135           ANGMOM= .030132884
   DAN= 2.79781            DDN= 3.39705            L= 111.8645228
   B= -2.2147417           MOID= 1.80337           TP= 2004-Oct-26.3122232445
 
Asteroid physical parameters (km, seconds, rotational period in hours):
   GM= n.a.                RAD= 151.959            ROTPER= 5.6304
   H= 6.4                  G= .180                 B-V= .679
                           ALBEDO= .057            STYP= C
 
ASTEROID comments: 
1: soln ref.= JPL#100, OCC=0
2: source=ORB
*******************************************************************************
 
 
*******************************************************************************
Ephemeris / WWW_USER Sat Jun 20 08:02:08 2020 Pasadena, USA      / Horizons
*******************************************************************************
Target body name: 52 Europa (A858 CA)             {source: JPL#100}
Center body name: Solar System Barycenter (0)     {source: DE431}
Center-site name: BODY CENTER
*******************************************************************************
Start time      : A.D. 1969-Jun-28 00:00:00.0000 TDB
Stop  time      : A.D. 2071-May-04 00:00:00.0000 TDB
Step-size       : 7200 minutes
*******************************************************************************
Center geodetic : 0.00000000,0.00000000,0.0000000 {E-lon(deg),Lat(deg),Alt(km)}
Center cylindric: 0.00000000,0.00000000,0.0000000 {E-lon(deg),Dxy(km),Dz(km)}
Center radii    : (undefined)                                                  
Small perturbers: Yes                             {source: SB431-N16}
Output units    : AU-D
Output type     : GEOMETRIC cartesian states
Output format   : 2 (position and velocity)
Reference frame : Ecliptic of J2000.0
*******************************************************************************
Initial IAU76/J2000 heliocentric ecliptic osculating elements (au, days, deg.):
  EPOCH=  2452321.5 ! 2002-Feb-16.00 (TDB)         Residual RMS= .27703        
   EC= .1013138221141426   QR= 2.786168738254223   TP= 2453304.8122232445      
   OM= 129.0227551476044   W=  342.7036757062343   IN= 7.468457240928826       
  Equivalent ICRF heliocentric equatorial cartesian coordinates (au, au/d):
   X= 1.380643272218814E+00  Y=-2.909358726400890E+00  Z=-1.133905348436428E+00
  VX= 8.008556936880655E-03 VY= 3.688874822243288E-03 VZ= 3.918319467651574E-04
Asteroid physical parameters (km, seconds, rotational period in hours):        
   GM= n.a.                RAD= 151.959            ROTPER= 5.6304              
   H= 6.4                  G= .180                 B-V= .679                   
                           ALBEDO= .057            STYP= C                     
*******************************************************************************
            JDTDB,            Calendar Date (TDB),        delta-T,                      X,                      Y,                      Z,                     VX,                     VY,                     VZ,
******************************************************************************************************************************************************************************************************************
$$SOE
2470220.500000000, A.D. 2051-Feb-18 00:00:00.0000,      69.185170,  1.289266144640226E+00, -3.168813127666218E+00,  1.237507051134177E-01,  8.074073478063727E-03,  3.347626586494180E-03, -1.103989745250308E-03,
2470225.500000000, A.D. 2051-Feb-23 00:00:00.0000,      69.185266,  1.329516318795586E+00, -3.151782768855263E+00,  1.182194859044163E-01,  8.025744502509058E-03,  3.464421079597789E-03, -1.108464194393300E-03,
2470230.500000000, A.D. 2051-Feb-28 00:00:00.0000,      69.185351,  1.369521076829847E+00, -3.134169888316061E+00,  1.126664012401249E-01,  7.975907826785171E-03,  3.580632704242643E-03, -1.112735801187526E-03,
2470235.500000000, A.D. 2051-Mar-05 00:00:00.0000,      69.185427,  1.409272892228011E+00, -3.115977439019355E+00,  1.070924672241130E-01,  7.924568251001077E-03,  3.696246003872160E-03, -1.116803809070001E-03,
2470240.500000000, A.D. 2051-Mar-10 00:00:00.0000,      69.185494,  1.448764262564247E+00, -3.097208451299795E+00,  1.014987037403532E-01,  7.871730611128650E-03,  3.811245488784653E-03, -1.120667462423337E-03,
2470245.500000000, A.D. 2051-Mar-15 00:00:00.0000,      69.185550,  1.487987709687382E+00, -3.077866033032067E+00,  9.588613444875847E-02,  7.817399781464359E-03,  3.925615631985666E-03, -1.124326006475199E-03,
2470250.500000000, A.D. 2051-Mar-20 00:00:00.0000,      69.185594,  1.526935779918559E+00, -3.057953369827392E+00,  9.025578678112776E-02,  7.761580677040118E-03,  4.039340865213606E-03, -1.127778687236911E-03,
2470255.500000000, A.D. 2051-Mar-25 00:00:00.0000,      69.185624,  1.565601044261010E+00, -3.037473725249315E+00,  8.460869193729170E-02,  7.704278256076500E-03,  4.152405575188750E-03, -1.131024751482926E-03,
2470260.500000000, A.D. 2051-Mar-30 00:00:00.0000,      69.185641,  1.603976098622359E+00, -3.016430441047915E+00,  7.894588488130233E-02,  7.645497522547248E-03,  4.264794099976934E-03, -1.134063446752707E-03,
2470265.500000000, A.D. 2051-Apr-04 00:00:00.0000,      69.185647,  1.642053564049998E+00, -2.994826937412006E+00,  7.326840433756682E-02,  7.585243528831964E-03,  4.376490725433192E-03, -1.136894021368519E-03,
2470270.500000000, A.D. 2051-Apr-09 00:00:00.0000,      69.185643,  1.679826086979898E+00, -2.972666713238814E+00,  6.757729278684831E-02,  7.523521378446705E-03,  4.487479681786928E-03, -1.139515724475293E-03,
2470275.500000000, A.D. 2051-Apr-14 00:00:00.0000,      69.185626,  1.717286339499368E+00, -2.949953346420250E+00,  6.187359646199518E-02,  7.460336228903053E-03,  4.597745140407209E-03, -1.141927806105674E-03,
2470280.500000000, A.D. 2051-Apr-19 00:00:00.0000,      69.185597,  1.754427019624589E+00, -2.926690494144980E+00,  5.615836534330045E-02,  7.395693294766475E-03,  4.707271210719086E-03, -1.144129517266219E-03,
2470285.500000000, A.D. 2051-Apr-24 00:00:00.0000,      69.185555,  1.791240851594044E+00, -2.902881893215678E+00,  5.043265315338159E-02,  7.329597850966016E-03,  4.816041937194477E-03, -1.146120110037018E-03,
2470290.500000000, A.D. 2051-Apr-29 00:00:00.0000,      69.185501,  1.827720586179135E+00, -2.878531360381321E+00,  4.469751735155159E-02,  7.262055236352852E-03,  4.924041296331448E-03, -1.147898837678206E-03,
2470295.500000000, A.D. 2051-May-04 00:00:00.0000,      69.185437,  1.863859001013140E+00, -2.853642792684733E+00,  3.895401912764036E-02,  7.193070857467304E-03,  5.031253193573521E-03, -1.149464954742073E-03,
2470300.500000000, A.D. 2051-May-09 00:00:00.0000,      69.185364,  1.899648900939389E+00, -2.828220167825700E+00,  3.320322339523638E-02,  7.122650192451124E-03,  5.137661460167877E-03, -1.150817717194484E-03,
2470305.500000000, A.D. 2051-May-14 00:00:00.0000,      69.185281,  1.935083118379258E+00, -2.802267544539831E+00,  2.744619878428043E-02,  7.050798795055664E-03,  5.243249850014008E-03, -1.151956382552928E-03,
2470310.500000000, A.D. 2051-May-19 00:00:00.0000,      69.185189,  1.970154513720434E+00, -2.775789062993089E+00,  2.168401763292224E-02,  6.977522298750182E-03,  5.348002036559261E-03, -1.152880210044894E-03,
2470315.500000000, A.D. 2051-May-24 00:00:00.0000,      69.185086,  2.004855975726052E+00, -2.748788945191673E+00,  1.591775597853380E-02,  6.902826420965246E-03,  5.451901609760515E-03, -1.153588460784598E-03,
2470320.500000000, A.D. 2051-May-29 00:00:00.0000,      69.184975,  2.039180421965485E+00, -2.721271495406991E+00,  1.014849354780876E-02,  6.826716967518701E-03,  5.554932073073558E-03, -1.154080397960648E-03,
2470325.500000000, A.D. 2051-Jun-03 00:00:00.0000,      69.184859,  2.073120799267723E+00, -2.693241100615766E+00,  4.377313745908918E-03,  6.749199837220402E-03,  5.657076840401398E-03, -1.154355287030421E-03,
2470330.500000000, A.D. 2051-Jun-08 00:00:00.0000,      69.184738,  2.106670084198111E+00, -2.664702230955570E+00, -1.394696355387964E-03,  6.670281026590212E-03,  5.758319232980800E-03, -1.154412395925800E-03,
2470335.500000000, A.D. 2051-Jun-13 00:00:00.0000,      69.184612,  2.139821283558681E+00, -2.635659440195872E+00, -7.166446030628634E-03,  6.589966634561926E-03,  5.858642476325748E-03, -1.154250995288418E-03,
2470340.500000000, A.D. 2051-Jun-18 00:00:00.0000,      69.184480,  2.172567434911908E+00, -2.606117366223780E+00, -1.293684091491695E-02,  6.508262867167667E-03,  5.958029697421157E-03, -1.153870358748122E-03,
2470345.500000000, A.D. 2051-Jun-23 00:00:00.0000,      69.184344,  2.204901607128136E+00, -2.576080731543143E+00, -1.870478301962510E-02,  6.425176042338493E-03,  6.056463922176773E-03, -1.153269763237878E-03,
2470350.500000000, A.D. 2051-Jun-28 00:00:00.0000,      69.184205,  2.236816900957558E+00, -2.545554343786037E+00, -2.446917074974209E-02,  6.340712594940880E-03,  6.153928072987321E-03, -1.152448489328377E-03,
2470355.500000000, A.D. 2051-Jul-03 00:00:00.0000,      69.184065,  2.268306449627906E+00, -2.514543096236378E+00, -3.022889892293421E-02,  6.254879082011890E-03,  6.250404966322129E-03, -1.151405821579514E-03,
